{
  "type": "FeatureCollection",
  "name": "Departement_Zou",
  "crs": { "type": "name", "properties": { "name": "urn:ogc:def:crs:OGC:1.3:CRS84" } },
  "features": [
    {
      "type": "Feature",
      "properties": {
        "nom_dept": "Zou",
        "code_dept": "BJ-ZO",
        "chef_lieu": "Abomey",
        "region": "Centre Bénin",
        "communes": ["Abomey", "Bohicon", "Djidja", "Za-Kpota", "Zogbodomey", "Covè", "Zagnanado", "Agbangnizoun", "Ouinhi"],
        "superficie_km2": 5243
      },
      "geometry": {
        "type": "Polygon",
        "coordinates": [
          [
            [1.8500, 7.5500],
            [2.0200, 7.6200],
            [2.2500, 7.5800],
            [2.4500, 7.4200],
            [2.5200, 7.2200],
            [2.4800, 7.0200],
            [2.3500, 6.8800],
            [2.1500, 6.8500],
            [1.9500, 6.9200],
            [1.7800, 7.1500],
            [1.7600, 7.3500],
            [1.8500, 7.5500]
          ]
        ]
      }
    }
  ]
}
